NORAD_CAT_ID,OBJECT_NAME,OBJECT_TYPE,EPOCH,MEAN_MOTION,ECCENTRICITY,INCLINATION,RA_OF_ASC_NODE,ARG_OF_PERICENTER,MEAN_ANOMALY,BSTAR,MEAN_MOTION_DOT,MEAN_MOTION_DDOT,TLE_LINE0,TLE_LINE1,TLE_LINE2,SEMIMAJOR_AXIS,PERIOD,APOGEE,PERIGEE,DECAYED
54061.0,STARLINK-5209,PAYLOAD,2024-03-21 14:33:59,15.08843365,0.0001177,53.2163,292.3171,83.9613,276.1514,4.3366e-05,4.02e-06,0.0,0 STARLINK-5209,1 54061U 22136L   24081.60694033  .00000402  00000-0  43366-4 0  9998,2 54061  53.2163 292.3171 0001177  83.9613 276.1514 15.08843365 78935,6917.87,95.437,540.549,538.921,0.0
54061.0,STARLINK-5209,PAYLOAD,2024-03-21 20:55:31,15.08856344,0.0001232,53.2154,291.1253,71.7335,288.3791,0.00039572,6.018e-05,0.0,0 STARLINK-5209,1 54061U 22136L   24081.87189609  .00006018  00000-0  39572-3 0  9997,2 54061  53.2154 291.1253 0001232  71.7335 288.3791 15.08856344 79452,6917.83,95.437,540.548,538.843,0.0
54061.0,STARLINK-5209,PAYLOAD,2024-03-22 19:10:55,15.08847465,0.0001362,53.2166,286.968,101.2705,258.844,0.00020568,2.988e-05,0.0,0 STARLINK-5209,1 54061U 22136L   24082.79925872  .00002988  00000-0  20568-3 0  9996,2 54061  53.2166 286.9680 0001362 101.2705 258.8440 15.08847465 79597,6917.858,95.437,540.665,538.78,0.0
54061.0,STARLINK-5209,PAYLOAD,2024-03-23 12:40:10,15.08842169,0.0001407,53.2164,283.7021,106.6299,253.4848,3.9047e-05,3.34e-06,0.0,0 STARLINK-5209,1 54061U 22136L   24083.52789994  .00000334  00000-0  39047-4 0  9997,2 54061  53.2164 283.7021 0001407 106.6299 253.4848 15.08842169 79708,6917.874,95.437,540.712,538.765,0.0
54061.0,STARLINK-5209,PAYLOAD,2024-03-23 20:37:06,15.08841066,0.0001296,53.2159,282.2094,79.6353,280.4786,-3.146e-05,-7.89e-06,0.0,0 STARLINK-5209,1 54061U 22136L   24083.85910290 -.00000789  00000-0 -31460-4 0  9995,2 54061  53.2159 282.2094 0001296  79.6353 280.4786 15.08841066 79270,6917.877,95.437,540.639,538.846,0.0
54061.0,STARLINK-5209,PAYLOAD,2024-03-24 12:30:59,15.08810861,0.0001464,53.216,279.2367,89.7756,270.3404,0.00068712,0.00010656,0.0,0 STARLINK-5209,1 54061U 22136L   24084.52151919  .00010656  00000-0  68712-3 0  9996,2 54061  53.2160 279.2367 0001464  89.7756 270.3404 15.08810861 79855,6917.969,95.439,540.847,538.822,0.0
54061.0,STARLINK-5209,PAYLOAD,2024-03-24 20:27:53,15.08845921,0.0001367,53.2159,277.7507,90.269,269.8458,0.00020021,2.9e-05,0.0,0 STARLINK-5209,1 54061U 22136L   24084.85270645  .00002900  00000-0  20021-3 0  9994,2 54061  53.2159 277.7507 0001367  90.2690 269.8458 15.08845921 79901,6917.862,95.437,540.673,538.782,0.0
54061.0,STARLINK-5209,PAYLOAD,2024-03-25 12:21:45,15.08841963,0.000137,53.2159,274.7751,80.5466,279.5681,0.00017574,2.51e-05,0.0,0 STARLINK-5209,1 54061U 22136L   24085.51510986  .00002510  00000-0  17574-3 0  9999,2 54061  53.2159 274.7751 0001370  80.5466 279.5681 15.08841963 80007,6917.874,95.437,540.687,538.792,0.0
54061.0,STARLINK-5209,PAYLOAD,2024-03-25 20:18:40,15.08847853,0.0001407,53.2158,273.2885,80.5237,279.5914,0.00024397,3.598e-05,0.0,0 STARLINK-5209,1 54061U 22136L   24085.84630658  .00003598  00000-0  24397-3 0  9992,2 54061  53.2158 273.2885 0001407  80.5237 279.5914 15.08847853 79578,6917.856,95.437,540.695,538.748,0.0
54061.0,STARLINK-5209,PAYLOAD,2024-03-26 12:12:33,15.08834094,0.0001692,53.2156,270.3154,79.7066,280.4116,6.0367e-05,6.73e-06,0.0,0 STARLINK-5209,1 54061U 22136L   24086.50871674  .00000673  00000-0  60367-4 0  9990,2 54061  53.2156 270.3154 0001692  79.7066 280.4116 15.08834094 80153,6917.898,95.438,540.934,538.593,0.0
54061.0,STARLINK-5209,PAYLOAD,2024-03-26 18:34:05,15.08833872,0.000162,53.2153,269.1248,82.9006,277.217,3.7688e-05,3.12e-06,0.0,0 STARLINK-5209,1 54061U 22136L   24086.77367706  .00000312  00000-0  37688-4 0  9995,2 54061  53.2153 269.1248 0001620  82.9006 277.2170 15.08833872 79718,6917.899,95.438,540.885,538.643,0.0
54061.0,STARLINK-5209,PAYLOAD,2024-03-27 12:03:21,15.08819247,0.0001257,53.2149,265.8537,90.8582,269.2555,-0.00010592,-1.972e-05,0.0,0 STARLINK-5209,1 54061U 22136L   24087.50233250 -.00001972  00000-0 -10592-3 0  9992,2 54061  53.2149 265.8537 0001257  90.8582 269.2555 15.08819247 80305,6917.944,95.439,540.678,538.939,0.0
54061.0,STARLINK-5209,PAYLOAD,2024-03-27 18:24:53,15.08839679,0.0001321,53.2166,264.6642,91.0078,269.1066,0.00010686,1.413e-05,0.0,0 STARLINK-5209,1 54061U 22136L   24087.76728187  .00001413  00000-0  10686-3 0  9990,2 54061  53.2166 264.6642 0001321  91.0078 269.1066 15.08839679 80344,6917.881,95.438,540.66,538.833,0.0
54061.0,STARLINK-5209,PAYLOAD,2024-03-27 21:35:39,15.08846499,0.000134,53.2171,264.0681,92.677,267.4376,6.7899e-05,7.93e-06,0.0,0 STARLINK-5209,1 54061U 22136L   24087.89975843  .00000793  00000-0  67899-4 0  9996,2 54061  53.2171 264.0681 0001340  92.6770 267.4376 15.08846499 79884,6917.861,95.437,540.653,538.799,0.0
54061.0,STARLINK-5209,PAYLOAD,2024-03-28 18:15:38,15.08854971,0.00013,53.2163,260.2033,83.5323,276.5817,0.00032813,4.94e-05,0.0,0 STARLINK-5209,1 54061U 22136L   24088.76086699  .00004940  00000-0  32813-3 0  9990,2 54061  53.2163 260.2033 0001300  83.5323 276.5817 15.08854971 80497,6917.835,95.437,540.599,538.8,0.0
54061.0,STARLINK-5209,PAYLOAD,2024-03-29 11:44:53,15.08851929,9.54e-05,53.2148,256.9302,80.8096,279.3005,0.00012193,1.654e-05,0.0,0 STARLINK-5209,1 54061U 22136L   24089.48951129  .00001654  00000-0  12193-3 0  9997,2 54061  53.2148 256.9302 0000954  80.8096 279.3005 15.08851929 80605,6917.844,95.437,540.369,539.049,0.0
54061.0,STARLINK-5209,PAYLOAD,2024-03-29 18:06:25,15.08854882,0.0001808,53.215,255.7394,91.2077,268.9122,0.00011386,1.525e-05,0.0,0 STARLINK-5209,1 54061U 22136L   24089.75446739  .00001525  00000-0  11386-3 0  9993,2 54061  53.2150 255.7394 0001808  91.2077 268.9122 15.08854882 80166,6917.835,95.437,540.951,538.449,0.0
54061.0,STARLINK-5209,PAYLOAD,2024-03-30 11:35:44,15.08804833,0.0002275,53.2192,252.4731,94.6921,265.4331,-0.00024541,-4.188e-05,0.0,0 STARLINK-5209,1 54061U 22136L   24090.48314958 -.00004188  00000-0 -24541-3 0  9999,2 54061  53.2192 252.4731 0002275  94.6921 265.4331 15.08804833 80755,6917.988,95.44,541.427,538.279,0.0
54061.0,STARLINK-5209,PAYLOAD,2024-03-30 21:08:03,15.0881108,0.0002925,53.2215,250.6913,99.3601,260.7721,-0.00017298,-3.039e-05,0.0,0 STARLINK-5209,1 54061U 22136L   24090.88059133 -.00003039  00000-0 -17298-3 0  9999,2 54061  53.2215 250.6913 0002925  99.3601 260.7721 15.08811080 80339,6917.969,95.439,541.857,537.81,0.0
54061.0,STARLINK-5209,PAYLOAD,2024-03-31 03:29:33,15.08837385,5.23e-05,53.2165,249.4998,75.1909,284.9141,4.0207e-05,3.52e-06,0.0,0 STARLINK-5209,1 54061U 22136L   24091.14552970  .00000352  00000-0  40207-4 0  9996,2 54061  53.2165 249.4998 0000523  75.1909 284.9141 15.08837385 80854,6917.888,95.438,540.115,539.392,0.0
54061.0,STARLINK-5209,PAYLOAD,2024-03-31 14:37:14,15.08854595,5.61e-05,53.2149,247.4178,62.1224,297.9825,0.00019506,2.819e-05,0.0,0 STARLINK-5209,1 54061U 22136L   24091.60919403  .00002819  00000-0  19506-3 0  9992,2 54061  53.2149 247.4178 0000561  62.1224 297.9825 15.08854595 80442,6917.836,95.437,540.089,539.313,0.0
54061.0,STARLINK-5209,PAYLOAD,2024-03-31 17:47:59,15.08884192,0.0001691,53.2177,246.8238,67.6796,292.4375,-0.00017047,-3.004e-05,0.0,0 STARLINK-5209,1 54061U 22136L   24091.74166258 -.00003004  00000-0 -17047-3 0  9996,2 54061  53.2177 246.8238 0001691  67.6796 292.4375 15.08884192 80943,6917.745,95.435,540.78,538.441,0.0
54061.0,STARLINK-5209,PAYLOAD,2024-04-01 09:41:54,15.08814974,0.0001435,53.2173,243.851,100.5368,259.5785,0.00030716,4.601e-05,0.0,0 STARLINK-5209,1 54061U 22136L   24092.40410406  .00004601  00000-0  30716-3 0  9997,2 54061  53.2173 243.8510 0001435 100.5368 259.5785 15.08814974 81049,6917.957,95.439,540.815,538.829,0.0
54061.0,STARLINK-5209,PAYLOAD,2024-04-01 14:28:07,15.08766227,0.0001275,53.2172,242.9591,80.2926,279.821,-0.00012483,-2.27e-05,0.0,0 STARLINK-5209,1 54061U 22136L   24092.60287011 -.00002270  00000-0 -12483-3 0  9996,2 54061  53.2172 242.9591 0001275  80.2926 279.8210 15.08766227 80597,6918.106,95.442,540.853,539.089,0.0
54061.0,STARLINK-5209,PAYLOAD,2024-04-01 17:38:51,15.08806558,0.0001218,53.2191,242.3617,84.8664,275.2467,-1.2508e-05,-4.87e-06,0.0,0 STARLINK-5209,1 54061U 22136L   24092.73531856 -.00000487  00000-0 -12508-4 0  9996,2 54061  53.2191 242.3617 0001218  84.8664 275.2467 15.08806558 81099,6917.983,95.44,540.69,539.005,0.0
54061.0,STARLINK-5209,PAYLOAD,2024-04-02 03:11:08,15.08854539,6.45e-05,53.2167,240.5775,83.0453,277.0612,0.00033683,5.079e-05,0.0,0 STARLINK-5209,1 54061U 22136L   24093.13273347  .00005079  00000-0  33683-3 0  9995,2 54061  53.2167 240.5775 0000645  83.0453 277.0612 15.08854539 81158,6917.836,95.437,540.147,539.255,0.0
54061.0,STARLINK-5209,PAYLOAD,2024-04-02 15:54:11,15.08883619,0.0001206,53.2172,238.2005,72.6785,287.4339,0.00050434,7.757e-05,0.0,0 STARLINK-5209,1 54061U 22136L   24093.66263182  .00007757  00000-0  50434-3 0  9997,2 54061  53.2172 238.2005 0001206  72.6785 287.4339 15.08883619 81231,6917.747,95.435,540.446,538.778,0.0
54061.0,STARLINK-5209,PAYLOAD,2024-04-03 09:23:25,15.0884485,0.0001083,53.2186,234.9277,93.6598,266.4518,0.00073276,0.00011395,0.0,0 STARLINK-5209,1 54061U 22136L   24094.39126238  .00011395  00000-0  73276-3 0  9990,2 54061  53.2186 234.9277 0001083  93.6598 266.4518 15.08844850 81340,6917.866,95.437,540.48,538.981,0.0
54061.0,STARLINK-5209,PAYLOAD,2024-04-03 12:34:11,15.08845628,0.0001085,53.219,234.3325,91.0682,269.0435,0.00068957,0.00010705,0.0,0 STARLINK-5209,1 54061U 22136L   24094.52374217  .00010705  00000-0  68957-3 0  9991,2 54061  53.2190 234.3325 0001085  91.0682 269.0435 15.08845628 80880,6917.863,95.437,540.479,538.978,0.0
54061.0,STARLINK-5209,PAYLOAD,2024-04-03 15:44:57,15.08848284,0.0001065,53.2188,233.7372,98.4646,261.6467,0.0006382,9.886e-05,0.0,0 STARLINK-5209,1 54061U 22136L   24094.65622083  .00009886  00000-0  63820-3 0  9994,2 54061  53.2188 233.7372 0001065  98.4646 261.6467 15.08848284 80908,6917.855,95.437,540.457,538.983,0.0
